ORBCOMM FM115           
1 41186U 15081H   25156.29960092  .00000801  00000+0  19079-3 0  9998
2 41186  46.9985  96.0924 0001255 327.0289  33.0520 14.62484454506036
ORBCOMM FM108           
1 41187U 15081J   25156.38495533  .00000678  00000+0  18241-3 0  9994
2 41187  47.0031 162.7078 0003707 267.4577  92.5884 14.58138583505152
ORBCOMM FM117           
1 41188U 15081K   25156.35112715  .00000344  00000+0  11048-3 0  9998
2 41188  46.9994 161.6328 0004184 272.0685  87.9721 14.58137130505118
ORBCOMM FM116           
1 41189U 15081L   25156.40845674  .00000919  00000+0  23397-3 0  9990
2 41189  47.0020 251.2105 0001391 120.5231 239.5792 14.58162232503933
